AO-123
1 61781U 24199AY  26189.60061706  .00005389  00000-0  15576-3 0  9992
2 61781  97.2978  58.0796 0012355 225.9399 134.0829 15.35989237137210
JINJUSat 1B
1 63210U 25052A   26188.95705020  .00009836  00000-0  29951-3 0  9994
2 63210  97.3975  85.7464 0004098  47.1696 312.9890 15.34189055 73285
NUSHSAT 1
1 63211U 25052B   26189.16160539  .00013226  00000-0  36926-3 0  9997
2 63211  97.3951  86.5915 0003898  54.7686 305.3923 15.36841397 73368
TEVEL2-4
1 63213U 25052D   26188.19567571  .00013726  00000-0  40159-3 0  9996
2 63213  97.3872  84.6269 0004183  68.1516 292.0172 15.35364717 73185
TEVEL2-5
1 63214U 25052E   26188.67475235  .00013404  00000-0  39439-3 0  9997
2 63214  97.3872  85.0494 0004186  68.0190 292.1498 15.35192497 73255
TEVEL2-6
1 63215U 25052F   26189.14382303  .00011983  00000-0  35316-3 0  9994
2 63215  97.3875  85.5040 0004021  70.9311 289.2368 15.35167949 73321
TEVEL2-1
1 63217U 25052H   26187.68057351  .00015226  00000-0  45647-3 0  9997
2 63217  97.3844  83.6383 0004748  76.8203 283.3570 15.34567986 73086
TEVEL2-3
1 63218U 25052J   26189.17416039  .00011343  00000-0  33978-3 0  9996
2 63218  97.3853  85.1582 0004466  75.5573 284.6165 15.34667910 73316
TEVEL2-2
1 63219U 25052K   26189.50651823  .00013021  00000-0  39012-3 0  9996
2 63219  97.3852  85.4689 0004705  73.9445 286.2316 15.34625790 73364
TEVEL2-9
1 63237U 25052AD  26187.68368611  .00013872  00000-0  44317-3 0  9991
2 63237  97.3912  82.9767 0008199  80.0094 280.2072 15.32543225 73015
TEVEL2-7
1 63238U 25052AE  26189.16515712  .00010171  00000-0  32860-3 0  9992
2 63238  97.3913  84.3629 0008227  76.1375 284.0782 15.32265367 73232
TEVEL2-8
1 63239U 25052AF  26189.43483379  .00010262  00000-0  33159-3 0  9999
2 63239  97.3913  84.6085 0008168  76.0240 284.1910 15.32256020 73270
SPIRONE
1 66657U 25274H   26188.75521461  .00002106  00000-0  20459-3 0  9998
2 66657  97.7472 117.7528 0010624 311.9586  48.0728 14.93635223 33299
K-HERO
1 66660U 25274L   26189.49081813  .00001831  00000-0  17676-3 0  9997
2 66660  97.7482 118.6549 0012551 313.1179  46.8990 14.94047746 33419
SNUGLITE-III DURI
1 66661U 25274M   26189.27717065  .00001597  00000-0  15473-3 0  9991
2 66661  97.7481 118.4650 0013331 314.2674  45.7452 14.94074985 33381
SAKHACUBE-CHOLBON
1 67290U 25313AU  26189.15635024  .00005926  00000-0  23822-3 0  9992
2 67290  97.3924 263.9332 0007603 281.0448  78.9935 15.25275237 29170
RS95S (QMR-KWT-2)
1 67291U 25313AV  26189.18975632  .00007819  00000-0  29893-3 0  9995
2 67291  97.3921 264.1878 0007224 276.6648  83.3769 15.26853112 29199
Ten-Koh2
1 68261U 25241B   26189.45844170  .00002521  00000-0  11593-3 0  9998
2 68261  51.6621 218.3823 0004694 207.2667 152.8066 15.24131868 18158
JACK-002
1 68417U 26067B   26188.83909569  .00004255  00000-0  20273-3 0  9994
2 68417  97.4574 147.1783 0002275 148.4039 211.7333 15.19653921 15086
DISCO 2
1 68431U 26067R   26189.39105929  .00005012  00000-0  23996-3 0  9997
2 68431  97.4607 147.7124 0000188  34.0694 326.0552 15.19403328 15168
HADES-SA (SpinnyONE)
1 68446U 26067AG  26189.36171780  .00011956  00000-0  56034-3 0  9991
2 68446  97.4409 147.3516 0007025  25.8019 334.3565 15.19822538 15143
PARUS-6U1
1 68456U 26067AS  26189.35335315  .00003684  00000-0  18581-3 0  9991
2 68456  97.4559 147.3950 0005537  12.7066 347.4306 15.17747282 15143
SAL-E
1 68458U 26067AU  26189.34487727  .00004599  00000-0  22892-3 0  9993
2 68458  97.4485 147.3110 0006149  22.1844 337.9655 15.18074517 15146
FSI-SAT 2
1 68792U 26088A   26189.40170691  .00002270  00000-0  15532-3 0  9990
2 68792  97.5094 338.1334 0015254  40.8240 319.4128 15.07009679 11484
OrigamiSat 2
1 68795U 26088D   26188.91792882  .00005644  00000-0  35797-3 0  9993
2 68795  97.5089 337.8625 0014718  12.3804 347.7784 15.09215444 11421
ARICA 2
1 68796U 26088E   26189.38779405  .00001804  00000-0  11911-3 0  9998
2 68796  97.5082 338.2949 0015660  11.6084 348.5503 15.08595864 11499
WASEDA-SAT-ZERO-II
1 68797U 26088F   26189.38002377  .00003161  00000-0  20410-3 0  9998
2 68797  97.5079 338.3034 0015358  10.6967 349.4585 15.08879977 11495
MANGARO-II-Piscus
1 68798U 26088G   26188.97119167  .00002620  00000-0  16935-3 0  9995
2 68798  97.5090 337.9381 0019136  14.3334 345.8433 15.08933048 11432
IO-86
1 40931U          25360.30710720  .00000000  00000-0  12800-3 0    00
2 40931   6.0006 332.5373 0012733 338.8432   8.1437 14.79075515    01
LILIUM-4
1 71922C 26067AC  26089.50133053 -.00014632  00000 0 -74472-3 0    04
2 71922  97.4497  49.1617 0004341   5.9603 355.7042 15.16896692    16
